norad_id,name,regime,epoch,line1,line2,inclination,eccentricity,mean_motion,raan,arg_pericenter,mean_anomaly
44333,AT&T T-16,GEO,19216.94910479,1 44333U 19034A   19216.94910479 -.00000006 +00000-0 +00000-0 0 0045,2 44333 000.0257 084.6455 0001983 034.1704 050.0021 01.0049595900050,0.0257,0.0001983,1.00495959,84.6455,34.1704,50.0021
44333,AT&T T-16,GEO,19217.74007772,1 44333U 19034A   19217.74007772 -.00000011  00000-0  00000+0 0   452,2 44333   0.0274  85.8985 0002028  32.5344 336.5534  1.00496148   516,0.0274,0.0002028,1.00496148,85.8985,32.5344,336.5534
44333,AT&T T-16,GEO,19218.74007885,1 44333U 19034A   19218.74007885 -.00000015  00000-0  00000+0 0   474,2 44333   0.0261  84.0258 0002067  36.4006 336.3578  1.00496672   526,0.0261,0.0002067,1.00496672,84.0258,36.4006,336.3578
44333,AT&T T-16,GEO,19219.73452082,1 44333U 19034A   19219.73452082 -.00000020 +00000-0 +00000-0 0 0077,2 44333 000.0251 081.6780 0002107 039.1420 335.7530 01.0049716100053,0.0251,0.0002107,1.00497161,81.678,39.142,335.753
44333,AT&T T-16,GEO,19220.11240711,1 44333U 19034A   19220.11240711 -.00000022  00000-0  00000+0 0   484,2 44333   0.0250  80.6750 0002164  39.5320 113.0856  1.00497327   532,0.025,0.0002164,1.00497327,80.675,39.532,113.0856
44333,AT&T T-16,GEO,19220.68673145,1 44333U 19034A   19220.68673145 -.00000025 +00000-0 +00000-0 0 0066,2 44333 000.0251 081.0644 0002141 040.5236 319.4960 01.0049759000054,0.0251,0.0002141,1.0049759,81.0644,40.5236,319.496
44333,AT&T T-16,GEO,19221.11750215,1 44333U 19034A   19221.11750215 -.00000027  00000-0  00000+0 0   519,2 44333   0.0253  79.9834 0002202  40.9962 115.9585  1.00497771   544,0.0253,0.0002202,1.00497771,79.9834,40.9962,115.9585
44333,AT&T T-16,GEO,19221.91716259,1 44333U 19034A   19221.91716259 -.00000031 +00000-0 +00000-0 0 0078,2 44333 000.0252 079.4872 0002170 042.7191 044.0515 01.0049810100055,0.0252,0.000217,1.00498101,79.4872,42.7191,44.0515
44333,AT&T T-16,GEO,19222.12269032,1 44333U 19034A   19222.12269032 -.00000032  00000-0  00000+0 0   520,2 44333   0.0252  78.7716 0002221  43.1671 118.6807  1.00498209   557,0.0252,0.0002221,1.00498209,78.7716,43.1671,118.6807
44333,AT&T T-16,GEO,19222.95327214,1 44333U 19034A   19222.95327214 -.00000037 +00000-0 +00000-0 0 0084,2 44333 000.0250 079.1912 0002207 045.0734 056.8652 01.0049860300056,0.025,0.0002207,1.00498603,79.1912,45.0734,56.8652
44333,AT&T T-16,GEO,19223.25801286,1 44333U 19034A   19223.25801286 -.00000038  00000-0  00000+0 0   535,2 44333   0.0253  78.5923 0002247  45.3328 167.4614  1.00498701   563,0.0253,0.0002247,1.00498701,78.5923,45.3328,167.4614
44333,AT&T T-16,GEO,19223.92549244,1 44333U 19034A   19223.92549244 -.00000042 +00000-0 +00000-0 0 0087,2 44333 000.0255 079.0301 0002236 046.3847 047.4712 01.0049897700057,0.0255,0.0002236,1.00498977,79.0301,46.3847,47.4712
44333,AT&T T-16,GEO,19224.61748646,1 44333U 19034A   19224.61748646 -.00000046  00000-0  00000+0 0   546,2 44333   0.0267  78.7138 0002289  46.7723 297.7673  1.00499168   580,0.0267,0.0002289,1.00499168,78.7138,46.7723,297.7673
44333,AT&T T-16,GEO,19225.73590951,1 44333U 19034A   19225.73590951 -.00000051  00000-0  00000+0 0   551,2 44333   0.0272  80.4430 0002302  46.1811 341.2875  1.00499679   596,0.0272,0.0002302,1.00499679,80.443,46.1811,341.2875
44333,AT&T T-16,GEO,19226.71779853,1 44333U 19034A   19226.71779853 -.00000055 +00000-0 +00000-0 0 0065,2 44333 000.0289 080.5724 0002404 047.6148 334.9824 01.0050004000060,0.0289,0.0002404,1.0050004,80.5724,47.6148,334.9824
44333,AT&T T-16,GEO,19227.08687122,1 44333U 19034A   19227.08687122 -.00000057  00000-0  00000+0 0   565,2 44333   0.0282  82.0123 0002438  46.0477 108.6436  1.00500138   604,0.0282,0.0002438,1.00500138,82.0123,46.0477,108.6436
44333,AT&T T-16,GEO,19227.44241641,1 44333U 19034A   19227.44241641 -.00000058 +00000-0 +00000-0 0 0059,2 44333 000.0277 081.2922 0002441 047.9895 236.0626 01.0050027000061,0.0277,0.0002441,1.0050027,81.2922,47.9895,236.0626
44333,AT&T T-16,GEO,19228.26360211,1 44333U 19034A   19228.26360211 -.00000061  00000-0  00000+0 0   579,2 44333   0.0280  81.5855 0002409  50.2907 170.5841  1.00500614   619,0.028,0.0002409,1.00500614,81.5855,50.2907,170.5841
44333,AT&T T-16,GEO,19228.65638963,1 44333U 19034A   19228.65638963 -.00000062 +00000-0 +00000-0 0 0074,2 44333 000.0285 082.7671 0002396 049.6121 312.1968 01.0050073700062,0.0285,0.0002396,1.00500737,82.7671,49.6121,312.1968
44333,AT&T T-16,GEO,19229.72896742,1 44333U 19034A   19229.72896742 -.00000065 +00000-0 +00000-0 0 0062,2 44333 000.0253 082.9501 0002509 053.7380 335.9635 01.0050120200063,0.0253,0.0002509,1.00501202,82.9501,53.738,335.9635
44333,AT&T T-16,GEO,19230.66674515,1 44333U 19034A   19230.66674515 -.00000068 +00000-0 +00000-0 0 0065,2 44333 000.0273 084.5232 0002568 054.5936 312.8370 01.0050148000064,0.0273,0.0002568,1.0050148,84.5232,54.5936,312.837
44333,AT&T T-16,GEO,19231.88734626,1 44333U 19034A   19231.88734626 -.00000072  00000-0  00000+0 0   602,2 44333   0.0297  87.2251 0002535  53.1860  33.1738  1.00501752   657,0.0297,0.0002535,1.00501752,87.2251,53.186,33.1738
44333,AT&T T-16,GEO,19232.67709872,1 44333U 19034A   19232.67709872 -.00000075  00000-0  00000+0 0   619,2 44333   0.0224 104.9331 0002462  62.1138 292.2872  1.00500751   666,0.0224,0.0002462,1.00500751,104.9331,62.1138,292.2872
44333,AT&T T-16,GEO,19232.89248417,1 44333U 19034A   19232.89248417 -.00000075 +00000-0 +00000-0 0 0001,2 44333 000.0229 103.8469 0002501 062.8562 010.5619 01.0050138500067,0.0229,0.0002501,1.00501385,103.8469,62.8562,10.5619
44333,AT&T T-16,GEO,19233.53375226,1 44333U 19034A   19233.53375226 -.00000079  00000-0  00000+0 0   622,2 44333   0.0282 293.9400 0002603 232.5863 242.7658  1.00504437   679,0.0282,0.0002603,1.00504437,293.94,232.5863,242.7658
44333,AT&T T-16,GEO,19233.68225514,1 44333U 19034A   19233.68225514 -.00000079 +00000-0 +00000-0 0 0001,2 44333 000.0290 297.6806 0002606 229.5352 295.8075 01.0050424300068,0.029,0.0002606,1.00504243,297.6806,229.5352,295.8075
44333,AT&T T-16,GEO,19234.53701594,1 44333U 19034A   19234.53701594 -.00000083  00000-0  00000+0 0   663,2 44333   0.0280 268.5288 0002584 260.3997 243.3665  1.00504276   681,0.028,0.0002584,1.00504276,268.5288,260.3997,243.3665
44333,AT&T T-16,GEO,19234.61565662,1 44333U 19034A   19234.61565662 -.00000083  00000-0  00000+0 0   677,2 44333   0.0277  82.5530 0002494  65.5143 292.6720  1.00502541   681,0.0277,0.0002494,1.00502541,82.553,65.5143,292.672
44333,AT&T T-16,GEO,19234.61565663,1 44333U 19034A   19234.61565663 -.00000083 +00000-0 +00000-0 0 0001,2 44333 000.0290 268.9620 0002585 260.1543 271.6326 01.0050426400068,0.029,0.0002585,1.00504264,268.962,260.1543,271.6326
44333,AT&T T-16,GEO,19235.36039773,1 44333U 19034A   19235.36039773 -.00000088  00000-0  00000+0 0   719,2 44333   0.0196 260.6488 0002559 270.2497 179.3141  1.00504236   693,0.0196,0.0002559,1.00504236,260.6488,270.2497,179.3141
44333,AT&T T-16,GEO,19235.90257726,1 44333U 19034A   19235.90257726 -.00000091 +00000-0 +00000-0 0 0001,2 44333 000.0105 242.8917 0002555 289.0557 014.4378 01.0050417500070,0.0105,0.0002555,1.00504175,242.8917,289.0557,14.4378
44333,AT&T T-16,GEO,19236.41785399,1 44333U 19034A   19236.41785399 -.00000095  00000-0  00000+0 0   727,2 44333   0.0089 235.4518 0002537 297.2692 200.1026  1.00504152   704,0.0089,0.0002537,1.00504152,235.4518,297.2692,200.1026
44333,AT&T T-16,GEO,19236.69756188,1 44333U 19034A   19236.69756188 -.00000096 +00000-0 +00000-0 0 0001,2 44333 000.0112 238.5596 0002543 295.0159 300.4526 01.0050410300071,0.0112,0.0002543,1.00504103,238.5596,295.0159,300.4526
44333,AT&T T-16,GEO,19237.53579096,1 44333U 19034A   19237.53579096 -.00000103  00000-0  00000+0 0   737,2 44333   0.0083 240.0461 0002521 294.8452 242.4262  1.00504027   710,0.0083,0.0002521,1.00504027,240.0461,294.8452,242.4262
44333,AT&T T-16,GEO,19237.63118632,1 44333U 19034A   19237.63118632 -.00000104 +00000-0 +00000-0 0 0001,2 44333 000.0075 246.3350 0002520 288.7423 276.7563 01.0050401300072,0.0075,0.000252,1.00504013,246.335,288.7423,276.7563
44333,AT&T T-16,GEO,19238.09584816,1 44333U 19034A   19238.09584816 -.00000108  00000-0  00000+0 0   741,2 44333   0.0014 172.8211 0002505   2.5821  84.5548  1.00503975   718,0.0014,0.0002505,1.00503975,172.8211,2.5821,84.5548
44333,AT&T T-16,GEO,19238.63636160,1 44333U 19034A   19238.63636160 -.00000113  00000-0  00000+0 0   758,2 44333   0.0032 230.7795 0002555 299.9500 284.8037  1.00504583   725,0.0032,0.0002555,1.00504583,230.7795,299.95,284.8037
44333,AT&T T-16,GEO,19238.93104910,1 44333U 19034A   19238.93104910 -.00000115 +00000-0 +00000-0 0 0001,2 44333 000.0036 137.9491 0002494 038.5953 025.6071 01.0050387100073,0.0036,0.0002494,1.00503871,137.9491,38.5953,25.6071
44333,AT&T T-16,GEO,19239.06722479,1 44333U 19034A   19239.06722479 -.00000116  00000-0  00000+0 0   769,2 44333   0.0125 123.3291 0002479  55.1773  72.9165  1.00502251   723,0.0125,0.0002479,1.00502251,123.3291,55.1773,72.9165
44333,AT&T T-16,GEO,19239.62448824,1 44333U 19034A   19239.62448824 -.00000121 +00000-0 +00000-0 0 0001,2 44333 000.0141 125.8445 0002459 052.4711 274.7382 01.0050211000074,0.0141,0.0002459,1.0050211,125.8445,52.4711,274.7382
44333,AT&T T-16,GEO,19240.07236272,1 44333U 19034A   19240.07236272 -.00000125  00000-0  00000+0 0   774,2 44333   0.0154 126.7351 0002472  51.5843  76.7851  1.00502054   736,0.0154,0.0002472,1.00502054,126.7351,51.5843,76.7851
44333,AT&T T-16,GEO,19240.43133847,1 44333U 19034A   19240.43133847 -.00000128  00000-0  00000+0 0   782,2 44333   0.0059 136.1880 0002480  40.8079 207.9915  1.00503714   747,0.0059,0.000248,1.00503714,136.188,40.8079,207.9915
44333,AT&T T-16,GEO,19240.64654948,1 44333U 19034A   19240.64654948 -.00000130 +00000-0 +00000-0 0 0001,2 44333 000.0167 129.0922 0002460 048.6427 285.1232 01.0050191000075,0.0167,0.000246,1.0050191,129.0922,48.6427,285.1232
